[{"OBJECT_NAME":"STARLINK-35035","OBJECT_ID":"2025-192D","EPOCH":"2026-03-09T18:21:03.759840","MEAN_MOTION":15.31044584,"ECCENTRICITY":0.00010982,"INCLINATION":53.1616,"RA_OF_ASC_NODE":232.154,"ARG_OF_PERICENTER":73.9902,"MEAN_ANOMALY":286.122,"EPHEMERIS_TYPE":0,"CLASSIFICATION_TYPE":"U","NORAD_CAT_ID":65407,"ELEMENT_SET_NO":999,"REV_AT_EPOCH":2939,"BSTAR":0.00093583349,"MEAN_MOTION_DOT":0.00028198,"MEAN_MOTION_DDOT":0},{"OBJECT_NAME":"COSMOS 970 DEB","OBJECT_ID":"1977-121BY","EPOCH":"2026-03-08T00:28:08.036544","MEAN_MOTION":15.38602545,"ECCENTRICITY":0.01254623,"INCLINATION":65.7647,"RA_OF_ASC_NODE":81.4591,"ARG_OF_PERICENTER":84.8291,"MEAN_ANOMALY":276.7158,"EPHEMERIS_TYPE":0,"CLASSIFICATION_TYPE":"U","NORAD_CAT_ID":20327,"ELEMENT_SET_NO":999,"REV_AT_EPOCH":74479,"BSTAR":0.0016623992,"MEAN_MOTION_DOT":0.00084425,"MEAN_MOTION_DDOT":0}]
